{
  "type": "FeatureCollection",
  "features": [
    {
      "type": "Feature",
      "properties": {
        "norad_id": 31678,
        "name": "FENGYUN 1C DEB",
        "group": "fengyun-1c-debris",
        "lat": -66.03322969830387,
        "lon": 106.38402418398884,
        "alt_km": 823.1857053842841,
        "timestamp": "2025-12-03T06:58:43.521534+00:00",
        "meta_object_name": "FENGYUN 1C DEB",
        "meta_object_id": "1999-025CCL",
        "meta_epoch": "2025-11-26T13:19:25.960512",
        "meta_mean_motion": 14.5293095,
        "meta_eccentricity": 0.02605683,
        "meta_inclination": 98.7996,
        "meta_ra_of_asc_node": 78.917,
        "meta_arg_of_pericenter": 76.9742,
        "meta_mean_anomaly": 286.0402,
        "meta_ephemeris_type": 0,
        "meta_classification_type": "U",
        "meta_norad_cat_id": 31678,
        "meta_element_set_no": 999,
        "meta_rev_at_epoch": 96604,
        "meta_bstar": 0.0012745717,
        "meta_mean_motion_dot": 8.183e-05,
        "meta_mean_motion_ddot": 0,
        "tle_line1": "1 31678U 99025CCL 25330.55516158  .00008183  00000+0  12746-2 0  9990",
        "tle_line2": "2 31678  98.7996  78.9170 0260568  76.9742 286.0402 14.52930950966044"
      },
      "geometry": {
        "type": "Point",
        "coordinates": [
          106.38402418398884,
          -66.03322969830387
        ]
      }
    },
    {
      "type": "Feature",
      "properties": {
        "norad_id": 31680,
        "name": "FENGYUN 1C DEB",
        "group": "fengyun-1c-debris",
        "lat": -1.0186860108631794,
        "lon": 82.06466593452986,
        "alt_km": 457.82160636244953,
        "timestamp": "2025-12-03T06:58:43.521544+00:00",
        "meta_object_name": "FENGYUN 1C DEB",
        "meta_object_id": "1999-025CCN",
        "meta_epoch": "2025-12-01T12:24:56.272608",
        "meta_mean_motion": 15.2312794,
        "meta_eccentricity": 0.00767197,
        "meta_inclination": 99.8371,
        "meta_ra_of_asc_node": 79.5688,
        "meta_arg_of_pericenter": 326.447,
        "meta_mean_anomaly": 33.1912,
        "meta_ephemeris_type": 0,
        "meta_classification_type": "U",
        "meta_norad_cat_id": 31680,
        "meta_element_set_no": 999,
        "meta_rev_at_epoch": 1,
        "meta_bstar": 0.0012055647,
        "meta_mean_motion_dot": 0.0003089,
        "meta_mean_motion_ddot": 0,
        "tle_line1": "1 31680U 99025CCN 25335.51731797  .00030890  00000+0  12056-2 0  9996",
        "tle_line2": "2 31680  99.8371  79.5688 0076719 326.4470  33.1912 15.23127940    10"
      },
      "geometry": {
        "type": "Point",
        "coordinates": [
          82.06466593452986,
          -1.0186860108631794
        ]
      }
    },
    {
      "type": "Feature",
      "properties": {
        "norad_id": 31685,
        "name": "FENGYUN 1C DEB",
        "group": "fengyun-1c-debris",
        "lat": 79.62889432272001,
        "lon": -55.3205344649447,
        "alt_km": 864.2554525878086,
        "timestamp": "2025-12-03T06:58:43.521555+00:00",
        "meta_object_name": "FENGYUN 1C DEB",
        "meta_object_id": "1999-025CCT",
        "meta_epoch": "2025-12-01T20:30:32.424480",
        "meta_mean_motion": 14.09652081,
        "meta_eccentricity": 0.00155771,
        "meta_inclination": 98.732,
        "meta_ra_of_asc_node": 0.403,
        "meta_arg_of_pericenter": 258.1268,
        "meta_mean_anomaly": 101.8156,
        "meta_ephemeris_type": 0,
        "meta_classification_type": "U",
        "meta_norad_cat_id": 31685,
        "meta_element_set_no": 999,
        "meta_rev_at_epoch": 94936,
        "meta_bstar": 0.00016751676,
        "meta_mean_motion_dot": 2.51e-06,
        "meta_mean_motion_ddot": 0,
        "tle_line1": "1 31685U 99025CCT 25335.85454195  .00000251  00000+0  16752-3 0  9998",
        "tle_line2": "2 31685  98.7320   0.4030 0015577 258.1268 101.8156 14.09652081949367"
      },
      "geometry": {
        "type": "Point",
        "coordinates": [
          -55.3205344649447,
          79.62889432272001
        ]
      }
    },
    {
      "type": "Feature",
      "properties": {
        "norad_id": 31686,
        "name": "FENGYUN 1C DEB",
        "group": "fengyun-1c-debris",
        "lat": -75.36410919140012,
        "lon": -164.45209468726182,
        "alt_km": 809.4026089645777,
        "timestamp": "2025-12-03T06:58:43.521565+00:00",
        "meta_object_name": "FENGYUN 1C DEB",
        "meta_object_id": "1999-025CCU",
        "meta_epoch": "2025-12-02T03:43:38.757216",
        "meta_mean_motion": 14.71793489,
        "meta_eccentricity": 0.02845072,
        "meta_inclination": 98.1533,
        "meta_ra_of_asc_node": 47.7056,
        "meta_arg_of_pericenter": 123.0943,
        "meta_mean_anomaly": 239.7923,
        "meta_ephemeris_type": 0,
        "meta_classification_type": "U",
        "meta_norad_cat_id": 31686,
        "meta_element_set_no": 999,
        "meta_rev_at_epoch": 97663,
        "meta_bstar": 0.0010846923,
        "meta_mean_motion_dot": 0.00012851,
        "meta_mean_motion_ddot": 0,
        "tle_line1": "1 31686U 99025CCU 25336.15530969  .00012851  00000+0  10847-2 0  9994",
        "tle_line2": "2 31686  98.1533  47.7056 0284507 123.0943 239.7923 14.71793489976631"
      },
      "geometry": {
        "type": "Point",
        "coordinates": [
          -164.45209468726182,
          -75.36410919140012
        ]
      }
    },
    {
      "type": "Feature",
      "properties": {
        "norad_id": 31688,
        "name": "FENGYUN 1C DEB",
        "group": "fengyun-1c-debris",
        "lat": 77.61060545012754,
        "lon": -102.52024072194482,
        "alt_km": 858.3273193920768,
        "timestamp": "2025-12-03T06:58:43.521575+00:00",
        "meta_object_name": "FENGYUN 1C DEB",
        "meta_object_id": "1999-025CCW",
        "meta_epoch": "2025-11-29T22:01:27.036192",
        "meta_mean_motion": 14.02313441,
        "meta_eccentricity": 0.00749442,
        "meta_inclination": 98.9681,
        "meta_ra_of_asc_node": 28.2002,
        "meta_arg_of_pericenter": 176.5955,
        "meta_mean_anomaly": 183.5736,
        "meta_ephemeris_type": 0,
        "meta_classification_type": "U",
        "meta_norad_cat_id": 31688,
        "meta_element_set_no": 999,
        "meta_rev_at_epoch": 95098,
        "meta_bstar": 1.8694355e-05,
        "meta_mean_motion_dot": -1.4e-07,
        "meta_mean_motion_ddot": 0,
        "tle_line1": "1 31688U 99025CCW 25333.91767403 -.00000014  00000+0  18694-4 0  9991",
        "tle_line2": "2 31688  98.9681  28.2002 0074944 176.5955 183.5736 14.02313441950986"
      },
      "geometry": {
        "type": "Point",
        "coordinates": [
          -102.52024072194482,
          77.61060545012754
        ]
      }
    },
    {
      "type": "Feature",
      "properties": {
        "norad_id": 31691,
        "name": "FENGYUN 1C DEB",
        "group": "fengyun-1c-debris",
        "lat": -18.551641944379096,
        "lon": -119.41538293556228,
        "alt_km": 793.4503131169959,
        "timestamp": "2025-12-03T06:58:43.521585+00:00",
        "meta_object_name": "FENGYUN 1C DEB",
        "meta_object_id": "1999-025CCZ",
        "meta_epoch": "2025-12-01T23:43:52.560192",
        "meta_mean_motion": 14.25951478,
        "meta_eccentricity": 0.00602675,
        "meta_inclination": 98.8822,
        "meta_ra_of_asc_node": 62.2736,
        "meta_arg_of_pericenter": 269.9511,
        "meta_mean_anomaly": 89.4763,
        "meta_ephemeris_type": 0,
        "meta_classification_type": "U",
        "meta_norad_cat_id": 31691,
        "meta_element_set_no": 999,
        "meta_rev_at_epoch": 63958,
        "meta_bstar": 0.0024948269,
        "meta_mean_motion_dot": 6.021e-05,
        "meta_mean_motion_ddot": 0,
        "tle_line1": "1 31691U 99025CCZ 25335.98880278  .00006021  00000+0  24948-2 0  9990",
        "tle_line2": "2 31691  98.8822  62.2736 0060267 269.9511  89.4763 14.25951478639583"
      },
      "geometry": {
        "type": "Point",
        "coordinates": [
          -119.41538293556228,
          -18.551641944379096
        ]
      }
    },
    {
      "type": "Feature",
      "properties": {
        "norad_id": 31692,
        "name": "FENGYUN 1C DEB",
        "group": "fengyun-1c-debris",
        "lat": 26.455200495391257,
        "lon": -31.154977864189995,
        "alt_km": 820.7998254491358,
        "timestamp": "2025-12-03T06:58:43.521595+00:00",
        "meta_object_name": "FENGYUN 1C DEB",
        "meta_object_id": "1999-025CDA",
        "meta_epoch": "2025-11-24T23:02:29.889888",
        "meta_mean_motion": 14.18081768,
        "meta_eccentricity": 0.00876738,
        "meta_inclination": 99.1762,
        "meta_ra_of_asc_node": 324.8504,
        "meta_arg_of_pericenter": 132.2014,
        "meta_mean_anomaly": 228.6645,
        "meta_ephemeris_type": 0,
        "meta_classification_type": "U",
        "meta_norad_cat_id": 31692,
        "meta_element_set_no": 999,
        "meta_rev_at_epoch": 57957,
        "meta_bstar": 0.0029345373,
        "meta_mean_motion_dot": 6.21e-05,
        "meta_mean_motion_ddot": 0,
        "tle_line1": "1 31692U 99025CDA 25328.96006817  .00006210  00000+0  29345-2 0  9996",
        "tle_line2": "2 31692  99.1762 324.8504 0087673 132.2014 228.6645 14.18081768579577"
      },
      "geometry": {
        "type": "Point",
        "coordinates": [
          -31.154977864189995,
          26.455200495391257
        ]
      }
    }
  ]
}